{
  "type": "FeatureCollection",
  "features": [
    {
      "type": "Feature",
      "properties": {
        "norad_id": 58701,
        "name": "TIANMU-1 16",
        "group": "weather",
        "lat": -14.872639184366221,
        "lon": -3.0250502995195827,
        "alt_km": 494.89356952208254,
        "timestamp": "2025-12-24T03:53:29.285667+00:00",
        "meta_object_name": "TIANMU-1 16",
        "meta_object_id": "2024-004B",
        "meta_epoch": "2025-12-23T20:44:17.035584",
        "meta_mean_motion": 15.24575586,
        "meta_eccentricity": 0.0004379,
        "meta_inclination": 97.4566,
        "meta_ra_of_asc_node": 178.6716,
        "meta_arg_of_pericenter": 245.3588,
        "meta_mean_anomaly": 114.7193,
        "meta_ephemeris_type": 0,
        "meta_classification_type": "U",
        "meta_norad_cat_id": 58701,
        "meta_element_set_no": 999,
        "meta_rev_at_epoch": 10904,
        "meta_bstar": 0.00030479,
        "meta_mean_motion_dot": 7.44e-05,
        "meta_mean_motion_ddot": 0,
        "tle_line1": "1 58701U 24004B   25357.86408606  .00007440  00000+0  30479-3 0  9991",
        "tle_line2": "2 58701  97.4566 178.6716 0004379 245.3588 114.7193 15.24575586109042"
      },
      "geometry": {
        "type": "Point",
        "coordinates": [
          -3.0250502995195827,
          -14.872639184366221
        ]
      }
    },
    {
      "type": "Feature",
      "properties": {
        "norad_id": 58702,
        "name": "TIANMU-1 17",
        "group": "weather",
        "lat": -76.55880828236558,
        "lon": -147.36712822708046,
        "alt_km": 497.2878667865425,
        "timestamp": "2025-12-24T03:53:29.285684+00:00",
        "meta_object_name": "TIANMU-1 17",
        "meta_object_id": "2024-004C",
        "meta_epoch": "2025-12-23T20:21:38.621088",
        "meta_mean_motion": 15.24618949,
        "meta_eccentricity": 0.0003548,
        "meta_inclination": 97.46,
        "meta_ra_of_asc_node": 179.0717,
        "meta_arg_of_pericenter": 246.4302,
        "meta_mean_anomaly": 113.6563,
        "meta_ephemeris_type": 0,
        "meta_classification_type": "U",
        "meta_norad_cat_id": 58702,
        "meta_element_set_no": 999,
        "meta_rev_at_epoch": 10903,
        "meta_bstar": 0.00030034,
        "meta_mean_motion_dot": 7.34e-05,
        "meta_mean_motion_ddot": 0,
        "tle_line1": "1 58702U 24004C   25357.84836367  .00007340  00000+0  30034-3 0  9995",
        "tle_line2": "2 58702  97.4600 179.0717 0003548 246.4302 113.6563 15.24618949109030"
      },
      "geometry": {
        "type": "Point",
        "coordinates": [
          -147.36712822708046,
          -76.55880828236558
        ]
      }
    },
    {
      "type": "Feature",
      "properties": {
        "norad_id": 58703,
        "name": "TIANMU-1 18",
        "group": "weather",
        "lat": 11.935968673156037,
        "lon": 177.99430929201287,
        "alt_km": 494.66456017096607,
        "timestamp": "2025-12-24T03:53:29.285703+00:00",
        "meta_object_name": "TIANMU-1 18",
        "meta_object_id": "2024-004D",
        "meta_epoch": "2025-12-23T19:57:46.274112",
        "meta_mean_motion": 15.24602136,
        "meta_eccentricity": 0.0002921,
        "meta_inclination": 97.4617,
        "meta_ra_of_asc_node": 179.2529,
        "meta_arg_of_pericenter": 243.457,
        "meta_mean_anomaly": 116.6368,
        "meta_ephemeris_type": 0,
        "meta_classification_type": "U",
        "meta_norad_cat_id": 58703,
        "meta_element_set_no": 999,
        "meta_rev_at_epoch": 10903,
        "meta_bstar": 0.00026673,
        "meta_mean_motion_dot": 6.506e-05,
        "meta_mean_motion_ddot": 0,
        "tle_line1": "1 58703U 24004D   25357.83178558  .00006506  00000+0  26673-3 0  9993",
        "tle_line2": "2 58703  97.4617 179.2529 0002921 243.4570 116.6368 15.24602136109037"
      },
      "geometry": {
        "type": "Point",
        "coordinates": [
          177.99430929201287,
          11.935968673156037
        ]
      }
    },
    {
      "type": "Feature",
      "properties": {
        "norad_id": 58990,
        "name": "INSAT-3DS",
        "group": "weather",
        "lat": 0.02535214618137196,
        "lon": -126.59314253355237,
        "alt_km": 35782.40442951751,
        "timestamp": "2025-12-24T03:53:29.285721+00:00",
        "meta_object_name": "INSAT-3DS",
        "meta_object_id": "2024-033A",
        "meta_epoch": "2025-12-23T19:16:08.177088",
        "meta_mean_motion": 1.00271525,
        "meta_eccentricity": 0.0001189,
        "meta_inclination": 0.0578,
        "meta_ra_of_asc_node": 100.0953,
        "meta_arg_of_pericenter": 174.9514,
        "meta_mean_anomaly": 188.6839,
        "meta_ephemeris_type": 0,
        "meta_classification_type": "U",
        "meta_norad_cat_id": 58990,
        "meta_element_set_no": 999,
        "meta_rev_at_epoch": 4531,
        "meta_bstar": 0,
        "meta_mean_motion_dot": -1.35e-06,
        "meta_mean_motion_ddot": 0,
        "tle_line1": "1 58990U 24033A   25357.80287242 -.00000135  00000+0  00000+0 0  9996",
        "tle_line2": "2 58990   0.0578 100.0953 0001189 174.9514 188.6839  1.00271525 45310"
      },
      "geometry": {
        "type": "Point",
        "coordinates": [
          -126.59314253355237,
          0.02535214618137196
        ]
      }
    },
    {
      "type": "Feature",
      "properties": {
        "norad_id": 59051,
        "name": "METEOR-M2 4",
        "group": "weather",
        "lat": -45.29621283367065,
        "lon": -36.22996746755746,
        "alt_km": 819.3596427192006,
        "timestamp": "2025-12-24T03:53:29.285738+00:00",
        "meta_object_name": "METEOR-M2 4",
        "meta_object_id": "2024-039A",
        "meta_epoch": "2025-12-23T21:21:14.308416",
        "meta_mean_motion": 14.22402897,
        "meta_eccentricity": 0.0006456,
        "meta_inclination": 98.6783,
        "meta_ra_of_asc_node": 314.6246,
        "meta_arg_of_pericenter": 325.1363,
        "meta_mean_anomaly": 34.9391,
        "meta_ephemeris_type": 0,
        "meta_classification_type": "U",
        "meta_norad_cat_id": 59051,
        "meta_element_set_no": 999,
        "meta_rev_at_epoch": 9434,
        "meta_bstar": 3.5735e-05,
        "meta_mean_motion_dot": 3.6e-07,
        "meta_mean_motion_ddot": 0,
        "tle_line1": "1 59051U 24039A   25357.88974894  .00000036  00000+0  35735-4 0  9992",
        "tle_line2": "2 59051  98.6783 314.6246 0006456 325.1363  34.9391 14.22402897 94341"
      },
      "geometry": {
        "type": "Point",
        "coordinates": [
          -36.22996746755746,
          -45.29621283367065
        ]
      }
    },
    {
      "type": "Feature",
      "properties": {
        "norad_id": 60133,
        "name": "GOES 19",
        "group": "weather",
        "lat": -0.0026328070375889884,
        "lon": 76.13483409317541,
        "alt_km": 35787.78973818909,
        "timestamp": "2025-12-24T03:53:29.285806+00:00",
        "meta_object_name": "GOES 19",
        "meta_object_id": "2024-119A",
        "meta_epoch": "2025-12-23T12:46:25.910112",
        "meta_mean_motion": 1.0027184,
        "meta_eccentricity": 0.0001012,
        "meta_inclination": 0.0202,
        "meta_ra_of_asc_node": 184.8401,
        "meta_arg_of_pericenter": 138.5806,
        "meta_mean_anomaly": 245.325,
        "meta_ephemeris_type": 0,
        "meta_classification_type": "U",
        "meta_norad_cat_id": 60133,
        "meta_element_set_no": 999,
        "meta_rev_at_epoch": 520,
        "meta_bstar": 0,
        "meta_mean_motion_dot": -2.27e-06,
        "meta_mean_motion_ddot": 0,
        "tle_line1": "1 60133U 24119A   25357.53224433 -.00000227  00000+0  00000+0 0  9998",
        "tle_line2": "2 60133   0.0202 184.8401 0001012 138.5806 245.3250  1.00271840  5201"
      },
      "geometry": {
        "type": "Point",
        "coordinates": [
          76.13483409317541,
          -0.0026328070375889884
        ]
      }
    },
    {
      "type": "Feature",
      "properties": {
        "norad_id": 65815,
        "name": "FENGYUN 3H",
        "group": "weather",
        "lat": 81.31937383611626,
        "lon": -155.91126448687518,
        "alt_km": 817.6533498449189,
        "timestamp": "2025-12-24T03:53:29.285831+00:00",
        "meta_object_name": "FENGYUN 3H",
        "meta_object_id": "2025-219A",
        "meta_epoch": "2025-12-23T19:00:38.901888",
        "meta_mean_motion": 14.19907493,
        "meta_eccentricity": 7.95e-05,
        "meta_inclination": 98.66,
        "meta_ra_of_asc_node": 297.1432,
        "meta_arg_of_pericenter": 107.9519,
        "meta_mean_anomaly": 252.1744,
        "meta_ephemeris_type": 0,
        "meta_classification_type": "U",
        "meta_norad_cat_id": 65815,
        "meta_element_set_no": 999,
        "meta_rev_at_epoch": 1249,
        "meta_bstar": 6.4922e-05,
        "meta_mean_motion_dot": 9.5e-07,
        "meta_mean_motion_ddot": 0,
        "tle_line1": "1 65815U 25219A   25357.79211692  .00000095  00000+0  64922-4 0  9993",
        "tle_line2": "2 65815  98.6600 297.1432 0000795 107.9519 252.1744 14.19907493 12495"
      },
      "geometry": {
        "type": "Point",
        "coordinates": [
          -155.91126448687518,
          81.31937383611626
        ]
      }
    }
  ]
}